[Satellite]
VERSION=1.1
NAME=DIAMOND RED
NICKNAME=DIAMOND RED
TLE1=1 42783U 17036U   19317.67707076  .00000945  00000-0  43736-4 0  9997
TLE2=2 42783  97.3332  11.8730 0013719  73.7700 286.5045 15.22435391132762
STATUS=0
